STARLINK-3559           
1 51860U 22022J   26141.92375735  .00000884  00000+0  73601-4 0  9993
2 51860  53.2200  40.3594 0001563  84.8845 275.2326 15.08844587234175
STARLINK-3562           
1 51861U 22022K   26141.90904632  .00000942  00000+0  77284-4 0  9992
2 51861  53.2180  40.4258 0001076  91.2741 268.8374 15.08837743234084
STARLINK-3508           
1 51862U 22022L   26141.92008465 -.00000478  00000+0 -11960-4 0  9999
2 51862  53.2179  40.3739 0001478 100.5942 259.5216 15.08843288234228
STARLINK-3555           
1 51863U 22022M   26141.90168564 -.00003612  00000+0 -20903-3 0  9994
2 51863  53.2152  40.4609 0001135 103.6704 256.4415 15.08829920234164
STARLINK-3548           
1 51864U 22022N   26141.90535602  .00000828  00000+0  70123-4 0  9990
2 51864  53.2178  40.3654 0001463  94.3066 265.8093 15.08839477234213
STARLINK-3503           
1 51865U 22022P   26141.89432861 -.00000796  00000+0 -31909-4 0  9997
2 51865  53.2183  40.4942 0001513 103.2740 256.8421 15.08835808234169
STARLINK-3553           
1 51866U 22022Q   26141.89158615 -.00000024  00000+0  16595-4 0  9997
2 51866  53.2175  40.3595 0001349  88.6366 271.4781 15.08837357234164
STARLINK-3590           
1 51867U 22022R   26141.89064759 -.00001068  00000+0 -49041-4 0  9995
2 51867  53.2174  40.5101 0001576  90.7131 269.4041 15.08836422234163
STARLINK-3578           
1 51868U 22022S   26141.89801071  .00000230  00000+0  32550-4 0  9997
2 51868  53.2173  40.4772 0001596  90.7292 269.3883 15.08840682234162
STARLINK-3588           
1 51869U 22022T   26141.87960632 -.00008069  00000+0 -48905-3 0  9995
2 51869  53.2166  40.5608 0001485  86.2876 273.8286 15.08869041234166
STARLINK-3591           
1 51870U 22022U   26141.88696770  .00000229  00000+0  32479-4 0  9995
2 51870  53.2168  40.5249 0001289  88.0849 272.0291 15.08836889234210
STARLINK-3567           
1 51871U 22022V   26141.87592512 -.00000413  00000+0 -78911-5 0  9993
2 51871  53.2166  40.5762 0001284  89.3286 270.7854 15.08835009234272
STARLINK-3554           
1 51872U 22022W   26141.88328533  .00000413  00000+0  44060-4 0  9990
2 51872  53.2166  40.5417 0000982  88.6333 271.4772 15.08832620234160
STARLINK-3582           
1 51873U 22022X   26141.91786932  .00021820  00000+0  98678-3 0  9994
2 51873  53.2165  31.1450 0005321  90.6454 269.5153 15.20872103234303
STARLINK-3574           
1 51874U 22022Y   26141.93850695 -.00001812  00000+0 -95835-4 0  9999
2 51874  53.2173  40.2933 0001571  86.8730 273.2442 15.08822799234166
STARLINK-3585           
1 51875U 22022Z   26141.91639374 -.00000111  00000+0  11131-4 0  9994
2 51875  53.2195  40.3046 0001349  89.3532 270.7614 15.08842005234174
STARLINK-3583           
1 51876U 22022AA  26141.93480417 -.00000365  00000+0 -48194-5 0  9991
2 51876  53.2194  40.3091 0001646  95.9455 264.1725 15.08838575234178
STARLINK-3556           
1 51877U 22022AB  26141.91732616  .00000396  00000+0  42980-4 0  9999
2 51877  53.2178  30.3880 0001500  90.1843 269.9321 15.08835439234309
STARLINK-3575           
1 51878U 22022AC  26141.92745920 -.00001872  00000+0 -99535-4 0  9993
2 51878  53.2189  40.3420 0002069  91.6967 268.4262 15.08828160234173
STARLINK-3572           
1 51879U 22022AD  26141.90997126 -.00001307  00000+0 -64043-4 0  9998
2 51879  53.2182  30.4230 0001450  87.6322 272.4836 15.08831896234306
STARLINK-3566           
1 51880U 22022AE  26141.93110407 -.00001825  00000+0 -96666-4 0  9993
2 51880  53.2181  40.0449 0001555  94.0526 266.0644 15.08825212234176
STARLINK-3504           
1 51881U 22022AF  26141.90260515 -.00001269  00000+0 -61658-4 0  9992
2 51881  53.2171  30.4556 0001161  86.6830 273.4295 15.08838277234355
STARLINK-3570           
1 51882U 22022AG  26141.91460635 -.00000617  00000+0 -20677-4 0  9991
2 51882  53.2189  30.4112 0001500  94.2653 265.8511 15.08834648234352
STARLINK-3576           
1 51883U 22022AH  26141.91367414 -.00001554  00000+0 -79593-4 0  9995
2 51883  53.2184  30.5872 0001520  91.8439 268.2727 15.08834637234296
STARLINK-3577           
1 51884U 22022AJ  26141.90629116 -.00001429  00000+0 -71719-4 0  9998
2 51884  53.2184  30.4387 0001700  90.9111 269.2076 15.08834986234389
STARLINK-3584           
1 51885U 22022AK  26141.89156959 -.00000593  00000+0 -19198-4 0  9991
2 51885  53.2183  30.5072 0001435  92.1171 267.9986 15.08837443234292
STARLINK-3565           
1 51886U 22022AL  26141.89891778  .00000063  00000+0  22058-4 0  9996
2 51886  53.2190  30.4715 0001546  76.1101 284.0063 15.08820337234304
STARLINK-3551           
1 51887U 22022AM  26141.88788590 -.00000357  00000+0 -43649-5 0  9991
2 51887  53.2188  30.5216 0001372  87.8735 272.2414 15.08837711234299
STARLINK-3536           
1 51888U 22022AN  26141.89524700 -.00002525  00000+0 -14062-3 0  9998
2 51888  53.2170  30.4884 0001392  90.8695 269.2457 15.08840823234305
STARLINK-3547           
1 51889U 22022AP  26141.87684578  .00000631  00000+0  57722-4 0  9992
2 51889  53.2175  30.5709 0001639  94.1151 266.0028 15.08841490234294
STARLINK-3549           
1 51891U 22022AR  26141.93940741 -.00000596  00000+0 -19334-4 0  9998
2 51891  53.2173  30.2900 0001501  90.5334 269.5830 15.08838177234350
STARLINK-3587           
1 51892U 22022AS  26141.88052731  .00000276  00000+0  35436-4 0  9990
2 51892  53.2175  30.5543 0001663  90.1738 269.9444 15.08839218234297
STARLINK-3579           
1 51893U 22022AT  26141.93204659  .00001042  00000+0  83534-4 0  9999
2 51893  53.2179  30.3237 0001332  93.8466 266.2679 15.08833182234363
STARLINK-3595           
1 51894U 22022AU  26141.93572571  .00000793  00000+0  67913-4 0  9996
2 51894  53.2179  30.3061 0001471  93.7775 266.3386 15.08836827234360
STARLINK-3594           
1 51895U 22022AV  26141.92837126  .00001730  00000+0  12673-3 0  9990
2 51895  53.2181  30.3388 0001613  96.4856 263.6320 15.08848926234309
STARLINK-3593           
1 51896U 22022AW  26141.88425761 -.00002305  00000+0 -12688-3 0  9991
2 51896  53.2182  30.7579 0000912  78.2866 281.8229 15.08818558234349
STARLINK-3598           
1 51897U 22022AX  26141.92468958  .00000324  00000+0  38425-4 0  9997
2 51897  53.2177  30.3522 0001239  78.4722 281.6409 15.08828605234302
STARLINK-3597           
1 51898U 22022AY  26141.92101191 -.00000803  00000+0 -32395-4 0  9995
2 51898  53.2183  30.3736 0001559  91.8690 268.2481 15.08833238234359
2022-023A               
1 51946U 22023A   26141.94761899  .00006457  00000+0  28594-3 0  9993
2 51946  63.4862 359.4959 0103987 342.9483  16.8143 15.17847060233731
2022-023B               
1 51947U 22023B   26141.94446410  .00007833  00000+0  34928-3 0  9990
2 51947  63.4844 358.8935 0098022 347.2059  12.6567 15.17897451233732
2022-023C               
1 51948U 22023C   26141.95102056  .00008521  00000+0  37635-3 0  9990
2 51948  63.4953   0.2703 0100509 350.0609   9.8513 15.17910281233738
2022-023D               
1 51949U 22023D   26141.96944869  .00013437  00000+0  55250-3 0  9993
2 51949  63.4580   0.8379 0121867 355.9409   4.0702 15.17848628233734
2022-023E               
1 51950U 22023E   26141.95755442 -.00000009  00000+0  10938-3 0  9997
2 51950  63.4637  22.0216 0157741 348.6685  11.0811 13.56282372218472
2022-023F               
1 51951U 22023F   26141.99139656  .00014467  00000+0  58108-3 0  9998
2 51951  63.4473   2.5384 0128116 343.7574  15.9447 15.17894629233734
STARLINK-3700           
1 51956U 22025A   26141.88483086 -.00001217  00000+0 -27451-4 0  9991
2 51956  53.1614  33.2349 0001398  85.1835 274.9326 15.31698300232380
STARLINK-3694           
1 51957U 22025B   26141.48913475  .00000911  00000+0  41129-4 0  9994
2 51957  53.1615  58.2937 0001323  89.6256 270.4897 15.31693001231988
STARLINK-3692           
1 51958U 22025C   26141.87549626 -.00000814  00000+0 -14482-4 0  9997
2 51958  53.1613  33.1859 0001224 102.4026 257.7113 15.31697916232384
STARLINK-3704           
1 51959U 22025D   26142.00003472 -.00015600  00000+0 -49182-3 0  9991
2 51959  53.1579  56.4872 0001348  89.8063 230.6380 15.31709047  5816
STARLINK-3691           
1 51960U 22025E   26141.92725375 -.00002354  00000+0 -64165-4 0  9997
2 51960  53.1624  56.0672 0001355  71.8574 288.2575 15.31669009232055
STARLINK-3697           
1 51962U 22025G   26141.92421344 -.00000196  00000+0  54494-5 0  9994
2 51962  53.1627  43.6929 0001314  88.1486 271.9666 15.31702375232239
STARLINK-3675           
1 51963U 22025H   26141.93608546 -.00000664  00000+0 -96381-5 0  9999
2 51963  53.1611  32.9043 0001398  92.4094 267.7067 15.31701338232399
STARLINK-3690           
1 51964U 22025J   26141.91023352 -.00000236  00000+0  41463-5 0  9999
2 51964  53.1603  43.7491 0001170  89.4257 270.6879 15.31696988232234
STARLINK-3696           
1 51965U 22025K   26141.91330825  .00000056  00000+0  13580-4 0  9993
2 51965  53.1631  56.6815 0001426 101.3972 258.7189 15.31707992232049
STARLINK-3699           
1 51966U 22025L   26141.90394737  .00001396  00000+0  56735-4 0  9992
2 51966  53.1617  56.4798 0001472 101.9897 258.1269 15.31709547232046
STARLINK-3681           
1 51968U 22025N   26141.90091163 -.00000373  00000+0 -25116-6 0  9998
2 51968  53.1605  43.7923 0001366  88.4683 271.6475 15.31702763232231
STARLINK-3680           
1 51969U 22025P   26141.91490083  .00000272  00000+0  20540-4 0  9994
2 51969  53.1611  43.7696 0001335  91.8818 268.2337 15.31696799232229
STARLINK-3677           
1 51970U 22025Q   26141.90783119  .00012408  00000+0  43972-3 0  9997
2 51970  53.1586  56.6221 0002462  36.6535 323.4634 15.29497161232047
STARLINK-3669           
1 51971U 22025R   26141.92891637  .00003116  00000+0  11218-3 0  9999
2 51971  53.1630  43.8680 0001486  68.3281 291.7879 15.31688720232235
STARLINK-3671           
1 51972U 22025S   26141.49512849 -.00000057  00000+0  10360-4 0  9997
2 51972  53.1571  58.4226 0001455  89.4922 270.6245 15.29353623231982
